[{"OBJECT_NAME":"STARLINK-5891","OBJECT_ID":"2023-058AL","EPOCH":"2026-03-09T22:38:46.444704","MEAN_MOTION":15.05647988,"ECCENTRICITY":0.00018791,"INCLINATION":97.6046,"RA_OF_ASC_NODE":71.4513,"ARG_OF_PERICENTER":92.9955,"MEAN_ANOMALY":267.1487,"EPHEMERIS_TYPE":0,"CLASSIFICATION_TYPE":"U","NORAD_CAT_ID":56351,"ELEMENT_SET_NO":999,"REV_AT_EPOCH":15823,"BSTAR":2.0695003e-5,"MEAN_MOTION_DOT":2.38e-6,"MEAN_MOTION_DDOT":0},{"OBJECT_NAME":"PEGASUS DEB","OBJECT_ID":"1994-029AFX","EPOCH":"2026-03-01T06:33:22.731264","MEAN_MOTION":14.85739755,"ECCENTRICITY":0.0106553,"INCLINATION":81.851,"RA_OF_ASC_NODE":257.2393,"ARG_OF_PERICENTER":271.4617,"MEAN_ANOMALY":87.4394,"EPHEMERIS_TYPE":0,"CLASSIFICATION_TYPE":"U","NORAD_CAT_ID":39924,"ELEMENT_SET_NO":999,"REV_AT_EPOCH":63095,"BSTAR":0.00041812,"MEAN_MOTION_DOT":4.045e-5,"MEAN_MOTION_DDOT":0}]
